NORAD_CAT_ID,OBJECT_NAME,OBJECT_TYPE,EPOCH,MEAN_MOTION,ECCENTRICITY,INCLINATION,RA_OF_ASC_NODE,ARG_OF_PERICENTER,MEAN_ANOMALY,BSTAR,MEAN_MOTION_DOT,MEAN_MOTION_DDOT,TLE_LINE0,TLE_LINE1,TLE_LINE2,SEMIMAJOR_AXIS,PERIOD,APOGEE,PERIGEE,DECAYED
56496.0,STARLINK-5526,PAYLOAD,2024-03-16 12:52:28,14.9835382,0.0003042,69.9992,127.6853,269.1297,90.9513,9.0303e-05,9.85e-06,0.0,0 STARLINK-5526,1 56496U 23064BA  24076.53644194  .00000985  00000-0  90303-4 0  9991,2 56496  69.9992 127.6853 0003042 269.1297  90.9513 14.98353820 47914,6950.119,96.105,574.098,569.87,0.0
56496.0,STARLINK-5526,PAYLOAD,2024-03-17 04:53:50,14.98335228,0.0002893,70.0004,126.0036,262.6823,97.4008,-0.00016325,-2.041e-05,0.0,0 STARLINK-5526,1 56496U 23064BA  24077.20405459 -.00002041  00000-0 -16325-3 0  9993,2 56496  70.0004 126.0036 0002893 262.6823  97.4008 14.98335228 48377,6950.177,96.107,574.052,570.031,0.0
56496.0,STARLINK-5526,PAYLOAD,2024-03-17 12:54:30,14.98331558,0.0003242,69.999,125.1608,268.3333,91.7455,-0.00022296,-2.752e-05,0.0,0 STARLINK-5526,1 56496U 23064BA  24077.53785703 -.00002752  00000-0 -22296-3 0  9995,2 56496  69.9990 125.1608 0003242 268.3333  91.7455 14.98331558 48062,6950.188,96.107,574.306,569.8,0.0
56496.0,STARLINK-5526,PAYLOAD,2024-03-18 04:55:51,14.98330279,0.0003164,69.999,123.4779,268.2683,91.8114,-0.00016884,-2.107e-05,0.0,0 STARLINK-5526,1 56496U 23064BA  24078.20545518 -.00002107  00000-0 -16884-3 0  9998,2 56496  69.9990 123.4779 0003164 268.2683  91.8114 14.98330279 48525,6950.192,96.107,574.256,569.858,0.0
56496.0,STARLINK-5526,PAYLOAD,2024-03-18 11:20:23,14.98330267,0.0003,69.9996,122.805,264.565,95.5167,-0.00013521,-1.706e-05,0.0,0 STARLINK-5526,1 56496U 23064BA  24078.47249426 -.00001706  00000-0 -13521-3 0  9995,2 56496  69.9996 122.8050 0003000 264.5650  95.5167 14.98330267 48209,6950.192,96.107,574.142,569.972,0.0
56496.0,STARLINK-5526,PAYLOAD,2024-03-19 11:22:24,14.98327202,0.0003188,69.9991,120.2792,268.7708,91.3086,0.00015534,1.761e-05,0.0,0 STARLINK-5526,1 56496U 23064BA  24079.47389080  .00001761  00000-0  15534-3 0  9992,2 56496  69.9991 120.2792 0003188 268.7708  91.3086 14.98327202 48351,6950.202,96.107,574.282,569.851,0.0
56496.0,STARLINK-5526,PAYLOAD,2024-03-19 12:58:32,14.98327949,0.0003188,69.9991,120.1109,268.7819,91.2975,0.00016044,1.822e-05,0.0,0 STARLINK-5526,1 56496U 23064BA  24079.54065038  .00001822  00000-0  16044-3 0  9999,2 56496  69.9991 120.1109 0003188 268.7819  91.2975 14.98327949 48720,6950.199,96.107,574.28,569.849,0.0
56496.0,STARLINK-5526,PAYLOAD,2024-03-20 09:48:17,14.98326377,0.0003015,69.9995,117.923,268.1201,91.9613,6.4756e-05,6.8e-06,0.0,0 STARLINK-5526,1 56496U 23064BA  24080.40853644  .00000680  00000-0  64756-4 0  9999,2 56496  69.9995 117.9230 0003015 268.1201  91.9613 14.98326377 48855,6950.204,96.107,574.165,569.974,0.0
56496.0,STARLINK-5526,PAYLOAD,2024-03-20 11:24:25,14.98326597,0.0003016,69.9994,117.7547,268.1884,91.893,6.6511e-05,7.01e-06,0.0,0 STARLINK-5526,1 56496U 23064BA  24080.47529660  .00000701  00000-0  66511-4 0  9999,2 56496  69.9994 117.7547 0003016 268.1884  91.8930 14.98326597 48508,6950.203,96.107,574.165,569.972,0.0
56496.0,STARLINK-5526,PAYLOAD,2024-03-21 11:26:26,14.98332357,0.0003002,69.9993,115.2291,267.3659,92.7156,1.2301e-05,5.4e-07,0.0,0 STARLINK-5526,1 56496U 23064BA  24081.47669450  .00000054  00000-0  12301-4 0  9991,2 56496  69.9993 115.2291 0003002 267.3659  92.7156 14.98332357 49010,6950.186,96.107,574.137,569.964,0.0
56496.0,STARLINK-5526,PAYLOAD,2024-03-22 11:28:27,14.98333908,0.0003021,69.999,112.704,267.1494,92.9319,7.512e-05,8.03e-06,0.0,0 STARLINK-5526,1 56496U 23064BA  24082.47809058  .00000803  00000-0  75120-4 0  9992,2 56496  69.9990 112.7040 0003021 267.1494  92.9319 14.98333908 49169,6950.181,96.107,574.145,569.946,0.0
56496.0,STARLINK-5526,PAYLOAD,2024-03-23 05:05:56,14.98322049,0.0002809,69.9994,110.8525,263.2933,96.7907,-4.5755e-05,-6.39e-06,0.0,0 STARLINK-5526,1 56496U 23064BA  24083.21246284 -.00000639  00000-0 -45755-4 0  9991,2 56496  69.9994 110.8525 0002809 263.2933  96.7907 14.98322049 49279,6950.217,96.108,574.035,570.13,0.0
56496.0,STARLINK-5526,PAYLOAD,2024-03-23 11:30:29,14.98319985,0.000285,69.9993,110.179,263.6735,96.4099,-6.9939e-05,-9.27e-06,0.0,0 STARLINK-5526,1 56496U 23064BA  24083.47950607 -.00000927  00000-0 -69939-4 0  9990,2 56496  69.9993 110.1790 0002850 263.6735  96.4099 14.98319985 48953,6950.224,96.108,574.07,570.108,0.0
56496.0,STARLINK-5526,PAYLOAD,2024-03-24 05:07:57,14.98331558,0.0002914,69.9991,108.3279,264.4928,95.5899,1.6001e-05,9.8e-07,0.0,0 STARLINK-5526,1 56496U 23064BA  24084.21385834  .00000098  00000-0  16001-4 0  9996,2 56496  69.9991 108.3279 0002914 264.4928  95.5899 14.98331558 49427,6950.188,96.107,574.078,570.028,0.0
56496.0,STARLINK-5526,PAYLOAD,2024-03-24 11:32:29,14.98335294,0.0002892,69.9991,107.6545,266.4633,93.6195,6.3422e-05,6.64e-06,0.0,0 STARLINK-5526,1 56496U 23064BA  24084.48089517  .00000664  00000-0  63422-4 0  9992,2 56496  69.9991 107.6545 0002892 266.4633  93.6195 14.98335294 49109,6950.177,96.107,574.052,570.032,0.0
56496.0,STARLINK-5526,PAYLOAD,2024-03-25 05:09:58,14.98325282,0.0002877,69.9991,105.8026,267.592,92.4909,0.00013909,1.567e-05,0.0,0 STARLINK-5526,1 56496U 23064BA  24085.21526012  .00001567  00000-0  13909-3 0  9997,2 56496  69.9991 105.8026 0002877 267.5920  92.4909 14.98325282 49574,6950.207,96.107,574.072,570.073,0.0
56496.0,STARLINK-5526,PAYLOAD,2024-03-25 17:59:03,14.98314473,0.000277,69.9992,104.456,265.9734,94.1109,0.00028973,3.364e-05,0.0,0 STARLINK-5526,1 56496U 23064BA  24085.74934741  .00003364  00000-0  28973-3 0  9991,2 56496  69.9992 104.4560 0002770 265.9734  94.1109 14.98314473 49650,6950.241,96.108,574.031,570.181,0.0
56496.0,STARLINK-5526,PAYLOAD,2024-03-26 05:11:59,14.98329059,0.0002807,69.999,103.2777,268.2017,91.882,-1.6485e-05,-2.9e-06,0.0,0 STARLINK-5526,1 56496U 23064BA  24086.21666423 -.00000290  00000-0 -16485-4 0  9996,2 56496  69.9990 103.2777 0002807 268.2017  91.8820 14.98329059 49724,6950.196,96.107,574.012,570.11,0.0
56496.0,STARLINK-5526,PAYLOAD,2024-03-26 11:36:31,14.9832835,0.0002631,69.9991,102.6044,271.139,88.9467,6.2121e-05,6.48e-06,0.0,0 STARLINK-5526,1 56496U 23064BA  24086.48370306  .00000648  00000-0  62121-4 0  9990,2 56496  69.9991 102.6044 0002631 271.1390  88.9467 14.98328350 49409,6950.198,96.107,573.892,570.234,0.0
56496.0,STARLINK-5526,PAYLOAD,2024-03-26 18:01:03,14.98335698,0.0002826,69.9992,101.9308,268.8569,91.2266,3.9634e-05,3.8e-06,0.0,0 STARLINK-5526,1 56496U 23064BA  24086.75073772  .00000380  00000-0  39634-4 0  9993,2 56496  69.9992 101.9308 0002826 268.8569  91.2266 14.98335698 49803,6950.175,96.107,574.004,570.076,0.0
56496.0,STARLINK-5526,PAYLOAD,2024-03-27 11:38:32,14.98335064,0.0002939,69.9989,100.079,270.4191,89.6632,8.1944e-05,8.85e-06,0.0,0 STARLINK-5526,1 56496U 23064BA  24087.48509414  .00000885  00000-0  81944-4 0  9992,2 56496  69.9989 100.0790 0002939 270.4191  89.6632 14.98335064 49556,6950.177,96.107,574.085,570.0,0.0
56496.0,STARLINK-5526,PAYLOAD,2024-03-28 05:16:00,14.98329909,0.0002974,69.9988,98.227,268.3854,91.6964,8.881e-05,9.67e-06,0.0,0 STARLINK-5526,1 56496U 23064BA  24088.21945573  .00000967  00000-0  88810-4 0  9994,2 56496  69.9988  98.2270 0002974 268.3854  91.6964 14.98329909 50023,6950.193,96.107,574.125,569.991,0.0
56496.0,STARLINK-5526,PAYLOAD,2024-03-28 10:04:25,14.98331794,0.0003006,69.9988,97.7219,267.9222,92.1593,6.3115e-05,6.6e-06,0.0,0 STARLINK-5526,1 56496U 23064BA  24088.41973486  .00000660  00000-0  63115-4 0  9991,2 56496  69.9988  97.7219 0003006 267.9222  92.1593 14.98331794 49691,6950.187,96.107,574.142,569.963,0.0
56496.0,STARLINK-5526,PAYLOAD,2024-03-28 18:05:05,14.98325947,0.0002956,69.9986,96.8799,272.5755,87.5065,7.5622e-05,8.09e-06,0.0,0 STARLINK-5526,1 56496U 23064BA  24088.75353830  .00000809  00000-0  75622-4 0  9994,2 56496  69.9986  96.8799 0002956 272.5755  87.5065 14.98325947 49749,6950.205,96.107,574.125,570.016,0.0
56496.0,STARLINK-5526,PAYLOAD,2024-03-29 05:18:02,14.98328024,0.0003103,69.9986,95.7008,269.1184,90.9619,-4.9815e-05,-6.87e-06,0.0,0 STARLINK-5526,1 56496U 23064BA  24089.22085877 -.00000687  00000-0 -49815-4 0  9991,2 56496  69.9986  95.7008 0003103 269.1184  90.9619 14.98328024 50174,6950.199,96.107,574.221,569.907,0.0
56496.0,STARLINK-5526,PAYLOAD,2024-03-29 10:06:26,14.98329064,0.0003052,69.9987,95.1969,269.7601,90.3208,-6.1057e-05,-8.21e-06,0.0,0 STARLINK-5526,1 56496U 23064BA  24089.42113866 -.00000821  00000-0 -61057-4 0  9995,2 56496  69.9987  95.1969 0003052 269.7601  90.3208 14.98329064 49843,6950.196,96.107,574.182,569.94,0.0
56496.0,STARLINK-5526,PAYLOAD,2024-03-29 18:07:06,14.98328817,0.0003051,69.9988,94.3552,264.0899,95.9913,-5.3816e-07,-9.9e-07,0.0,0 STARLINK-5526,1 56496U 23064BA  24089.75493711 -.00000099  00000-0 -53816-6 0  9994,2 56496  69.9988  94.3552 0003051 264.0899  95.9913 14.98328817 49893,6950.197,96.107,574.182,569.941,0.0
56496.0,STARLINK-5526,PAYLOAD,2024-03-30 05:20:02,14.98330226,0.000306,69.9988,93.1767,268.8903,91.1906,2.0485e-05,1.51e-06,0.0,0 STARLINK-5526,1 56496U 23064BA  24090.22225566  .00000151  00000-0  20485-4 0  9990,2 56496  69.9988  93.1767 0003060 268.8903  91.1906 14.98330226 50323,6950.192,96.107,574.184,569.93,0.0
56496.0,STARLINK-5526,PAYLOAD,2024-03-30 10:08:27,14.98321762,0.0002956,69.9989,92.6718,268.7546,91.3274,0.00022319,2.57e-05,0.0,0 STARLINK-5526,1 56496U 23064BA  24090.42253626  .00002570  00000-0  22319-3 0  9994,2 56496  69.9989  92.6718 0002956 268.7546  91.3274 14.98321762 49995,6950.218,96.108,574.138,570.029,0.0
56496.0,STARLINK-5526,PAYLOAD,2024-03-31 05:22:03,14.98329979,0.0003074,69.9986,90.6518,270.2395,89.8412,9.4171e-05,1.031e-05,0.0,0 STARLINK-5526,1 56496U 23064BA  24091.22365347  .00001031  00000-0  94171-4 0  9994,2 56496  69.9986  90.6518 0003074 270.2395  89.8412 14.98329979 50479,6950.193,96.107,574.194,569.921,0.0
